start=new Date('2022-04-16T00:00:00.000Z').valueOf();
sats=[{"ARG_OF_PERICENTER":"44.0395","ECCENTRICITY":"0.00019070","EPOCH":"2022-04-15T21:17:52.801152","INCLINATION":"53.0539","CLASSIFICATION_TYPE":"U","APOAPSIS":"548.551","MEAN_MOTION_DOT":"-0.00001221","MEAN_MOTION_DDOT":"0.0000000000000","DECAY_DATE":null,"RCS_SIZE":"LARGE","REF_FRAME":"TEME","TIME_SYSTEM":"UTC","SEMIMAJOR_AXIS":"6925.366","SITE":"AFETR","OBJECT_NAME":"STARLINK-1247","PERIOD":"95.592","BSTAR":"-0.00006309800000","MEAN_ANOMALY":"316.0746","FILE":"3403567","TLE_LINE2":"2 45236  53.0539 278.3057 0001907  44.0395 316.0746 15.06394405120794","RA_OF_ASC_NODE":"278.3057","PERIAPSIS":"545.910","EPHEMERIS_TYPE":"0","LAUNCH_DATE":"2020-02-17","REV_AT_EPOCH":"12079","COUNTRY_CODE":"US","MEAN_ELEMENT_THEORY":"SGP4","MEAN_MOTION":"15.06394405","NORAD_CAT_ID":"45236","GP_ID":"201339102","OBJECT_TYPE":"PAYLOAD","ELEMENT_SET_NO":"999","CENTER_NAME":"EARTH","OBJECT_ID":"2020-012BL","TLE_LINE1":"1 45236U 20012BL  22105.88741668 -.00001221  00000-0 -63098-4 0  9991"},{"RA_OF_ASC_NODE":"278.8244","TLE_LINE2":"2 45237  53.0539 278.8244 0001777  50.8045 309.3101 15.06413711120781","FILE":"3403567","BSTAR":"0.00008961500000","MEAN_ANOMALY":"309.3101","TLE_LINE1":"1 45237U 20012BM  22105.77682016  .00001054  00000-0  89615-4 0  9996","OBJECT_ID":"2020-012BM","ELEMENT_SET_NO":"999","CENTER_NAME":"EARTH","GP_ID":"201339854","OBJECT_TYPE":"PAYLOAD","NORAD_CAT_ID":"45237","MEAN_MOTION":"15.06413711","MEAN_ELEMENT_THEORY":"SGP4","COUNTRY_CODE":"US","REV_AT_EPOCH":"12078","LAUNCH_DATE":"2020-02-17","EPHEMERIS_TYPE":"0","PERIAPSIS":"545.941","APOAPSIS":"548.402","CLASSIFICATION_TYPE":"U","INCLINATION":"53.0539","EPOCH":"2022-04-15T18:38:37.261824","ARG_OF_PERICENTER":"50.8045","ECCENTRICITY":"0.00017770","PERIOD":"95.591","OBJECT_NAME":"STARLINK-1270","SITE":"AFETR","SEMIMAJOR_AXIS":"6925.307","TIME_SYSTEM":"UTC","REF_FRAME":"TEME","RCS_SIZE":"LARGE","DECAY_DATE":null,"MEAN_MOTION_DOT":"0.00001054","MEAN_MOTION_DDOT":"0.0000000000000"},{"CLASSIFICATION_TYPE":"U","APOAPSIS":"548.211","INCLINATION":"53.0564","EPOCH":"2022-04-15T20:49:59.614176","ECCENTRICITY":"0.00014920","ARG_OF_PERICENTER":"71.7559","SITE":"AFETR","PERIOD":"95.591","OBJECT_NAME":"STARLINK-1279","SEMIMAJOR_AXIS":"6925.312","DECAY_DATE":null,"RCS_SIZE":"LARGE","TIME_SYSTEM":"UTC","REF_FRAME":"TEME","MEAN_MOTION_DOT":"0.00001321","MEAN_MOTION_DDOT":"0.0000000000000","RA_OF_ASC_NODE":"48.4012","FILE":"3403567","TLE_LINE2":"2 45360  53.0564  48.4012 0001492  71.7559 288.3592 15.06411779115535","MEAN_ANOMALY":"288.3592","BSTAR":"0.00010756000000","TLE_LINE1":"1 45360U 20019A   22105.86805109  .00001321  00000-0  10756-3 0  9996","GP_ID":"201339365","OBJECT_TYPE":"PAYLOAD","MEAN_MOTION":"15.06411779","NORAD_CAT_ID":"45360","OBJECT_ID":"2020-019A","ELEMENT_SET_NO":"999","CENTER_NAME":"EARTH","MEAN_ELEMENT_THEORY":"SGP4","COUNTRY_CODE":"US","REV_AT_EPOCH":"11553","PERIAPSIS":"546.144","LAUNCH_DATE":"2020-03-18","EPHEMERIS_TYPE":"0"},{"INCLINATION":"53.0547","CLASSIFICATION_TYPE":"U","APOAPSIS":"548.203","ECCENTRICITY":"0.00014910","ARG_OF_PERICENTER":"60.6443","EPOCH":"2022-04-15T20:32:45.355200","SEMIMAJOR_AXIS":"6925.306","SITE":"AFETR","OBJECT_NAME":"STARLINK-1301","PERIOD":"95.591","MEAN_MOTION_DOT":"0.00000311","MEAN_MOTION_DDOT":"0.0000000000000","RCS_SIZE":"LARGE","DECAY_DATE":null,"REF_FRAME":"TEME","TIME_SYSTEM":"UTC","RA_OF_ASC_NODE":"58.4547","MEAN_ANOMALY":"299.4695","BSTAR":"0.00003979200000","FILE":"3403567","TLE_LINE2":"2 45361  53.0547  58.4547 0001491  60.6443 299.4695 15.06413948115402","MEAN_MOTION":"15.06413948","NORAD_CAT_ID":"45361","OBJECT_TYPE":"PAYLOAD","GP_ID":"201339615","ELEMENT_SET_NO":"999","CENTER_NAME":"EARTH","OBJECT_ID":"2020-019B","TLE_LINE1":"1 45361U 20019B   22105.85608050  .00000311  00000-0  39792-4 0  9992","PERIAPSIS":"546.138","EPHEMERIS_TYPE":"0","LAUNCH_DATE":"2020-03-18","REV_AT_EPOCH":"11540","MEAN_ELEMENT_THEORY":"SGP4","COUNTRY_CODE":"US"},{"SEMIMAJOR_AXIS":"6925.391","SITE":"AFETR","OBJECT_NAME":"STARLINK-1306","PERIOD":"95.593","MEAN_MOTION_DOT":"-0.00000127","MEAN_MOTION_DDOT":"0.0000000000000","DECAY_DATE":null,"RCS_SIZE":"LARGE","REF_FRAME":"TEME","TIME_SYSTEM":"UTC","INCLINATION":"53.0553","CLASSIFICATION_TYPE":"U","APOAPSIS":"548.464","ECCENTRICITY":"0.00017440","ARG_OF_PERICENTER":"56.3332","EPOCH":"2022-04-15T15:16:57.897408","MEAN_MOTION":"15.06386034","NORAD_CAT_ID":"45362","OBJECT_TYPE":"PAYLOAD","GP_ID":"201340367","ELEMENT_SET_NO":"999","CENTER_NAME":"EARTH","OBJECT_ID":"2020-019C","TLE_LINE1":"1 45362U 20019C   22105.63678122 -.00000127  00000-0  10350-4 0  9991","PERIAPSIS":"546.049","EPHEMERIS_TYPE":"0","LAUNCH_DATE":"2020-03-18","REV_AT_EPOCH":"11508","COUNTRY_CODE":"US","MEAN_ELEMENT_THEORY":"SGP4","RA_OF_ASC_NODE":"79.4380","BSTAR":"0.00001035000000","MEAN_ANOMALY":"303.7823","FILE":"3403567","TLE_LINE2":"2 45362  53.0553  79.4380 0001744  56.3332 303.7823 15.06386034115089"},{"RA_OF_ASC_NODE":"48.7236","FILE":"3403567","TLE_LINE2":"2 45364  53.0559  48.7236 0001900  62.4546 297.6636 15.06409098115523","BSTAR":"0.00013561000000","MEAN_ANOMALY":"297.6636","TLE_LINE1":"1 45364U 20019E   22105.79803188  .00001739  00000-0  13561-3 0  9997","OBJECT_TYPE":"PAYLOAD","GP_ID":"201340118","NORAD_CAT_ID":"45364","MEAN_MOTION":"15.06409098","OBJECT_ID":"2020-019E","CENTER_NAME":"EARTH","ELEMENT_SET_NO":"999","MEAN_ELEMENT_THEORY":"SGP4","COUNTRY_CODE":"US","REV_AT_EPOCH":"11552","PERIAPSIS":"545.870","EPHEMERIS_TYPE":"0","LAUNCH_DATE":"2020-03-18","APOAPSIS":"548.501","CLASSIFICATION_TYPE":"U","INCLINATION":"53.0559","EPOCH":"2022-04-15T19:09:09.954432","ECCENTRICITY":"0.00019000","ARG_OF_PERICENTER":"62.4546","SITE":"AFETR","PERIOD":"95.592","OBJECT_NAME":"STARLINK-1313","SEMIMAJOR_AXIS":"6925.321","RCS_SIZE":"LARGE","DECAY_DATE":null,"TIME_SYSTEM":"UTC","REF_FRAME":"TEME","MEAN_MOTION_DDOT":"0.0000000000000","MEAN_MOTION_DOT":"0.00001739"},{"FILE":"3403567","TLE_LINE2":"2 45365  53.0000  58.2516 0001540  62.0201 298.0942 15.05586893115361","BSTAR":"-0.00034458000000","MEAN_ANOMALY":"298.0942","RA_OF_ASC_NODE":"58.2516","MEAN_ELEMENT_THEORY":"SGP4","COUNTRY_CODE":"US","REV_AT_EPOCH":"11536","PERIAPSIS":"548.640","EPHEMERIS_TYPE":"0","LAUNCH_DATE":"2020-03-18","TLE_LINE1":"1 45365U 20019F   22105.90448900 -.00005297  00000-0 -34458-3 0  9991","GP_ID":"201338866","OBJECT_TYPE":"PAYLOAD","NORAD_CAT_ID":"45365","MEAN_MOTION":"15.05586893","OBJECT_ID":"2020-019F","ELEMENT_SET_NO":"999","CENTER_NAME":"EARTH","EPOCH":"2022-04-15T21:42:27.849600","ECCENTRICITY":"0.00015400","ARG_OF_PERICENTER":"62.0201","APOAPSIS":"550.774","CLASSIFICATION_TYPE":"U","INCLINATION":"53.0000","DECAY_DATE":null,"RCS_SIZE":"LARGE","TIME_SYSTEM":"UTC","REF_FRAME":"TEME","MEAN_MOTION_DOT":"-0.00005297","MEAN_MOTION_DDOT":"0.0000000000000","SITE":"AFETR","PERIOD":"95.644","OBJECT_NAME":"STARLINK-1317","SEMIMAJOR_AXIS":"6927.842"},{"MEAN_MOTION_DOT":"0.00002190","MEAN_MOTION_DDOT":"0.0000000000000","RCS_SIZE":"LARGE","DECAY_DATE":null,"TIME_SYSTEM":"UTC","REF_FRAME":"TEME","SEMIMAJOR_AXIS":"6925.305","SITE":"AFETR","PERIOD":"95.591","OBJECT_NAME":"STARLINK-1262","ARG_OF_PERICENTER":"67.7338","ECCENTRICITY":"0.00019060","EPOCH":"2022-04-15T21:17:52.310400","INCLINATION":"53.0537","APOAPSIS":"548.490","CLASSIFICATION_TYPE":"U","PERIAPSIS":"545.850","EPHEMERIS_TYPE":"0","LAUNCH_DATE":"2020-03-18","COUNTRY_CODE":"US","MEAN_ELEMENT_THEORY":"SGP4","REV_AT_EPOCH":"11513","OBJECT_TYPE":"PAYLOAD","GP_ID":"201339116","NORAD_CAT_ID":"45366","MEAN_MOTION":"15.06414230","OBJECT_ID":"2020-019G","CENTER_NAME":"EARTH","ELEMENT_SET_NO":"999","TLE_LINE1":"1 45366U 20019G   22105.88741100  .00002190  00000-0  16585-3 0  9995","BSTAR":"0.00016585000000","MEAN_ANOMALY":"292.3853","FILE":"3403567","TLE_LINE2":"2 45366  53.0537  78.3040 0001906  67.7338 292.3853 15.06414230115130","RA_OF_ASC_NODE":"78.3040"},{"TLE_LINE1":"1 45367U 20019H   22105.64414383  .00001644  00000-0  12921-3 0  9993","NORAD_CAT_ID":"45367","MEAN_MOTION":"15.06406671","GP_ID":"201339868","OBJECT_TYPE":"PAYLOAD","CENTER_NAME":"EARTH","ELEMENT_SET_NO":"999","OBJECT_ID":"2020-019H","REV_AT_EPOCH":"11509","MEAN_ELEMENT_THEORY":"SGP4","COUNTRY_CODE":"US","PERIAPSIS":"545.935","LAUNCH_DATE":"2020-03-18","EPHEMERIS_TYPE":"0","RA_OF_ASC_NODE":"79.4088","FILE":"3403567","TLE_LINE2":"2 45367  53.0527  79.4088 0001817  62.7990 297.3184 15.06406671115091","BSTAR":"0.00012921000000","MEAN_ANOMALY":"297.3184","SITE":"AFETR","OBJECT_NAME":"STARLINK-1273","PERIOD":"95.592","SEMIMAJOR_AXIS":"6925.328","DECAY_DATE":null,"RCS_SIZE":"LARGE","REF_FRAME":"TEME","TIME_SYSTEM":"UTC","MEAN_MOTION_DDOT":"0.0000000000000","MEAN_MOTION_DOT":"0.00001644","APOAPSIS":"548.451","CLASSIFICATION_TYPE":"U","INCLINATION":"53.0527","EPOCH":"2022-04-15T15:27:34.026912","ARG_OF_PERICENTER":"62.7990","ECCENTRICITY":"0.00018170"},{"SEMIMAJOR_AXIS":"6925.305","SITE":"AFETR","PERIOD":"95.591","OBJECT_NAME":"STARLINK-1276","MEAN_MOTION_DDOT":"0.0000000000000","MEAN_MOTION_DOT":"0.00001315","RCS_SIZE":"LARGE","DECAY_DATE":null,"TIME_SYSTEM":"UTC","REF_FRAME":"TEME","INCLINATION":"53.0569","CLASSIFICATION_TYPE":"U","APOAPSIS":"548.166","ECCENTRICITY":"0.00014380","ARG_OF_PERICENTER":"78.0331","EPOCH":"2022-04-15T22:42:47.287296","OBJECT_TYPE":"PAYLOAD","GP_ID":"201340618","NORAD_CAT_ID":"45368","MEAN_MOTION":"15.06414250","OBJECT_ID":"2020-019J","CENTER_NAME":"EARTH","ELEMENT_SET_NO":"999","TLE_LINE1":"1 45368U 20019J   22105.94638064  .00001315  00000-0  10712-3 0  9992","PERIAPSIS":"546.174","LAUNCH_DATE":"2020-03-18","EPHEMERIS_TYPE":"0","MEAN_ELEMENT_THEORY":"SGP4","COUNTRY_CODE":"US","REV_AT_EPOCH":"11514","RA_OF_ASC_NODE":"78.0372","MEAN_ANOMALY":"282.0819","BSTAR":"0.00010712000000","FILE":"3403567","TLE_LINE2":"2 45368  53.0569  78.0372 0001438  78.0331 282.0819 15.06414250115141"}];
